#aV2011 12 29  0  0   .00000000      96 DD+AD WGS84 FIT  NGA
## 1668 345600.00000000   900.00000000 55924  .0000000000000
+   31     1  2  3  4  5  6  7  8  9 10 11 12 13 14 15 16 17
+         18 19 20 21 22 23 25 26 27 28 29 30 31 32  0  0  0
+          0  0  0  0  0  0  0  0  0  0  0  0  0  0  0  0  0
+          0  0  0  0  0  0  0  0  0  0  0  0  0  0  0  0  0
+          0  0  0  0  0  0  0  0  0  0  0  0  0  0  0  0  0
++         0  0  0  0  0  0  0  0  0  0  0  0  0  0  0  0  0
++         0  0  0  0  0  0  0  0  0  0  0  0  0  0  0  0  0
++         0  0  0  0  0  0  0  0  0  0  0  0  0  0  0  0  0
++         0  0  0  0  0  0  0  0  0  0  0  0  0  0  0  0  0
++         0  0  0  0  0  0  0  0  0  0  0  0  0  0  0  0  0
%c cc cc ccc ccc cccc cccc cccc cccc ccccc ccccc ccccc ccccc
%c cc cc ccc ccc cccc cccc cccc cccc ccccc ccccc ccccc ccccc
%f  0.0000000  0.000000000  0.00000000000  0.000000000000000
%f  0.0000000  0.000000000  0.00000000000  0.000000000000000
%i    0    0    0    0      0      0      0      0         0
%i    0    0    0    0      0      0      0      0         0
/*      NGA, ST. LOUIS,MO.                                  
/*   EPHEMERIS COMPUTED FROM  3 DAYS OF DATA                
/* CCCCCCCCCCCCCCCCCCCCCCCCCCCCCCCCCCCCCCCCCCCCCCCCCCCCCCCCC
/* CCCCCCCCCCCCCCCCCCCCCCCCCCCCCCCCCCCCCCCCCCCCCCCCCCCCCCCCC
*  2011 12 29 21  0   .00000000                                                 
P  1 -12939.335112  22666.748285  -4910.377133    161.822662                    
V  1  -5985.691624   3255.773134  30919.377420       .145244                    
P  2  19910.376719  -8097.010657 -15183.594692    372.413897                    
V  2  -9500.769380  17488.775584 -22162.212749       .016891                    
P  3 -16740.380627   1058.316254  20194.891139    815.157920                    
V  3 -12442.050428 -23673.685978  -8591.589480       .050189                    
P  4  16180.590687   4201.585644 -20938.212161     47.815240                    
V  4 -15395.952022  21042.897678  -7434.357839       .112805                    
P  5  24703.024090  -3386.097125   9302.390460   -264.098541                    
V  5  11360.145368   4243.622804 -28428.697354      -.047111                    
P  6 -17754.202203  -3764.244180  19607.912326     19.919499                    
V  6  -9440.079882 -22771.898290 -12741.400396       .035013                    
P  7  -1546.727407  20358.955528  16873.887885     46.481293                    
V  7 -14614.641264  15783.609103 -20644.138806       .024973                    
P  8   7829.963193  12516.819170  22078.315973       .246393                    
V  8 -19358.643704  20050.500811  -5065.333870      -.000082                    
P  9  14898.351139 -21962.905069  -1886.387233    128.332318                    
V  9   2653.978468   -159.672041  32132.612459       .025210                    
P 10  23227.939886  10096.171367  -8880.227982    -23.816110                    
V 10 -11120.235259    896.983992 -28459.494078      -.012983                    
P 11 -12648.743615  22802.741797   3665.041629   -217.916006                    
V 11  -2941.259249  -6837.777419  29764.257760      -.036717                    
P 12  11297.377299 -12279.911910 -20610.032672     43.518775                    
V 12  25737.312973   4926.837954  11338.476382       .022574                    
P 13   4350.449093  25649.772474  -5269.587430    233.597491                    
V 13  -3800.222906  -5636.405696 -31466.558443      -.020546                    
P 14 -14921.273248 -18122.639685 -12384.322845    187.865668                    
V 14  -3458.271472 -15641.721666  26538.993373       .016096                    
P 15   8100.229669 -16224.850253  19342.959256    -95.670731                    
V 15  11246.206472  22001.355300  13945.959671       .008207                    
P 16 -25155.631741   1631.389845   8850.118332   -216.348005                    
V 16 -10625.536381  -3706.139823 -29280.655360      -.018213                    
P 17  14877.786486  19560.875659 -10223.496676    157.772322                    
V 17   2421.976800  13105.310533  27932.990621      -.021018                    
P 18  -9651.243925 -15982.528889  19356.024959    174.238656                    
V 18  23803.061999   2107.936845  13489.909502       .018369                    
P 19 -10916.395504  12894.362512  20368.115556   -220.226717                    
V 19  -8885.165591 -24506.948528  11097.685585      -.038834                    
P 20  -9415.716451  14368.828833 -20401.360497     58.984974                    
V 20 -25464.052722  -3504.804155   9430.171475       .007720                    
P 21  -3639.173791 -18365.363806  19068.654881   -194.093639                    
V 21  16079.734928 -17367.957953 -14591.064504      -.024485                    
P 22 -22287.009053 -10836.863930   9880.240230    142.969962                    
V 22  12674.183900  -1391.838994  27436.508439       .000473                    
P 23  -1960.880556  22103.096645 -14295.529043    246.519453                    
V 23  -8929.649212 -16191.461161 -24115.276335      -.033283                    
P 25   -884.795809 -15238.283618 -21763.614945     30.711720                    
V 25  27375.451042   3131.069007  -3273.195852       .003889                    
P 26  14315.360029  -2378.596037  21662.584909   -279.686786                    
V 26   8726.777082  27533.096763  -2297.903660      -.140073                    
P 27  18242.669044 -17995.890872   6690.385329    340.899228                    
V 27  -2594.660552   7643.676828  30980.556042       .039584                    
P 28  19819.713756  12632.473596  13150.751339     97.731964                    
V 28 -15714.036660  -1312.563669  25794.955998       .036120                    
P 29  -4566.522840 -25406.087300  -6274.954215    270.423758                    
V 29   5203.013651   6667.330461 -30431.365402       .033220                    
P 30 -26390.261491  -2419.881323  -2180.806090      7.629314                    
V 30   2438.663477  -2789.202205 -31531.508452      -.109657                    
P 31 -16711.033161  -1032.871347 -20468.501394    188.887885                    
V 31  15841.150201 -21062.212155 -11531.704118       .048966                    
P 32 -17533.572562   8774.488081 -17465.858177   -384.775727                    
V 32 -21817.864733  -7085.782961  18555.538341      -.057948                    
EOF
